start=new Date('2022-12-11T00:00:00.000Z').valueOf();
sats=[{"RCS_SIZE":"LARGE","OBJECT_TYPE":"PAYLOAD","EPHEMERIS_TYPE":"0","CENTER_NAME":"EARTH","TLE_LINE2":"2 46162  53.0533 215.8940 0000777  73.0480 287.0594 15.06384164129018","SITE":"AFETR","OBJECT_NAME":"STARLINK-1603","OBJECT_ID":"2020-057AX","COUNTRY_CODE":"US","EPOCH":"2022-12-10T18:42:37.751904","ELEMENT_SET_NO":"999","APOAPSIS":"547.800","MEAN_MOTION_DDOT":"0.0000000000000","PERIAPSIS":"546.724","MEAN_ANOMALY":"287.0594","REV_AT_EPOCH":"12901","MEAN_ELEMENT_THEORY":"SGP4","NORAD_CAT_ID":"46162","FILE":"3688965","MEAN_MOTION_DOT":"0.00005334","ECCENTRICITY":"0.00007770","ARG_OF_PERICENTER":"73.0480","TLE_LINE1":"1 46162U 20057AX  22344.77960361  .00005334  00000-0  37688-3 0  9997","PERIOD":"95.593","CLASSIFICATION_TYPE":"U","BSTAR":"0.00037688000000","GP_ID":"219974074","DECAY_DATE":null,"INCLINATION":"53.0533","TIME_SYSTEM":"UTC","SEMIMAJOR_AXIS":"6925.397","LAUNCH_DATE":"2020-08-18","REF_FRAME":"TEME","MEAN_MOTION":"15.06384164","RA_OF_ASC_NODE":"215.8940"},{"GP_ID":"219974324","CLASSIFICATION_TYPE":"U","BSTAR":"-0.00130760000000","INCLINATION":"53.0562","DECAY_DATE":null,"MEAN_MOTION":"15.06456473","RA_OF_ASC_NODE":"195.9075","REF_FRAME":"TEME","TIME_SYSTEM":"UTC","LAUNCH_DATE":"2020-08-18","SEMIMAJOR_AXIS":"6925.175","MEAN_MOTION_DOT":"-0.00019734","FILE":"3688965","NORAD_CAT_ID":"46163","MEAN_ELEMENT_THEORY":"SGP4","MEAN_ANOMALY":"60.7553","PERIAPSIS":"546.036","REV_AT_EPOCH":"12803","ARG_OF_PERICENTER":"299.3291","TLE_LINE1":"1 46163U 20057AY  22344.77773929 -.00019734  00000-0 -13076-2 0  9995","PERIOD":"95.589","ECCENTRICITY":"0.00014510","OBJECT_ID":"2020-057AY","OBJECT_NAME":"STARLINK-1610","SITE":"AFETR","TLE_LINE2":"2 46163  53.0562 195.9075 0001451 299.3291  60.7553 15.06456473128036","ELEMENT_SET_NO":"999","MEAN_MOTION_DDOT":"0.0000000000000","APOAPSIS":"548.045","COUNTRY_CODE":"US","EPOCH":"2022-12-10T18:39:56.674656","OBJECT_TYPE":"PAYLOAD","RCS_SIZE":"LARGE","CENTER_NAME":"EARTH","EPHEMERIS_TYPE":"0"},{"RCS_SIZE":"LARGE","OBJECT_TYPE":"PAYLOAD","EPHEMERIS_TYPE":"0","CENTER_NAME":"EARTH","TLE_LINE2":"2 46164  53.0526 195.6054 0001643  52.8279 307.2860 15.06378413129300","OBJECT_NAME":"STARLINK-1612","SITE":"AFETR","OBJECT_ID":"2020-057AZ","COUNTRY_CODE":"US","EPOCH":"2022-12-10T20:10:12.788256","ELEMENT_SET_NO":"999","APOAPSIS":"548.418","MEAN_MOTION_DDOT":"0.0000000000000","PERIAPSIS":"546.142","MEAN_ANOMALY":"307.2860","REV_AT_EPOCH":"12930","MEAN_ELEMENT_THEORY":"SGP4","FILE":"3688965","MEAN_MOTION_DOT":"0.00000343","NORAD_CAT_ID":"46164","ECCENTRICITY":"0.00016430","ARG_OF_PERICENTER":"52.8279","PERIOD":"95.594","TLE_LINE1":"1 46164U 20057AZ  22344.84042579  .00000343  00000-0  41933-4 0  9993","BSTAR":"0.00004193300000","CLASSIFICATION_TYPE":"U","GP_ID":"219973073","DECAY_DATE":null,"INCLINATION":"53.0526","TIME_SYSTEM":"UTC","SEMIMAJOR_AXIS":"6925.415","LAUNCH_DATE":"2020-08-18","REF_FRAME":"TEME","RA_OF_ASC_NODE":"195.6054","MEAN_MOTION":"15.06378413"},{"MEAN_ELEMENT_THEORY":"SGP4","MEAN_MOTION_DOT":"0.00027381","FILE":"3688965","NORAD_CAT_ID":"46165","PERIAPSIS":"498.657","MEAN_ANOMALY":"260.4407","REV_AT_EPOCH":"12770","ARG_OF_PERICENTER":"99.7346","TLE_LINE1":"1 46165U 20057BA  22344.80375565  .00027381  00000-0  12340-2 0  9993","PERIOD":"94.684","ECCENTRICITY":"0.00067040","BSTAR":"0.00123400000000","CLASSIFICATION_TYPE":"U","GP_ID":"219973323","DECAY_DATE":null,"INCLINATION":"53.0544","REF_FRAME":"TEME","RA_OF_ASC_NODE":"219.9137","MEAN_MOTION":"15.20852317","TIME_SYSTEM":"UTC","SEMIMAJOR_AXIS":"6881.405","LAUNCH_DATE":"2020-08-18","OBJECT_TYPE":"PAYLOAD","RCS_SIZE":"LARGE","CENTER_NAME":"EARTH","EPHEMERIS_TYPE":"0","OBJECT_NAME":"STARLINK-1613","SITE":"AFETR","OBJECT_ID":"2020-057BA","TLE_LINE2":"2 46165  53.0544 219.9137 0006704  99.7346 260.4407 15.20852317127706","ELEMENT_SET_NO":"999","APOAPSIS":"507.884","MEAN_MOTION_DDOT":"0.0000000000000","COUNTRY_CODE":"US","EPOCH":"2022-12-10T19:17:24.488160"},{"TLE_LINE2":"2 46166  53.0531 238.9671 0001449  61.8104 298.3031 15.06373496127376","SITE":"AFETR","OBJECT_NAME":"STARLINK-1615","OBJECT_ID":"2020-057BB","COUNTRY_CODE":"US","EPOCH":"2022-12-10T02:18:01.479744","ELEMENT_SET_NO":"999","APOAPSIS":"548.298","MEAN_MOTION_DDOT":"0.0000000000000","RCS_SIZE":"LARGE","OBJECT_TYPE":"PAYLOAD","EPHEMERIS_TYPE":"0","CENTER_NAME":"EARTH","BSTAR":"-0.00045016000000","CLASSIFICATION_TYPE":"U","GP_ID":"219930487","DECAY_DATE":null,"INCLINATION":"53.0531","TIME_SYSTEM":"UTC","SEMIMAJOR_AXIS":"6925.430","LAUNCH_DATE":"2020-08-18","REF_FRAME":"TEME","MEAN_MOTION":"15.06373496","RA_OF_ASC_NODE":"238.9671","MEAN_ANOMALY":"298.3031","PERIAPSIS":"546.291","REV_AT_EPOCH":"12737","MEAN_ELEMENT_THEORY":"SGP4","FILE":"3688140","MEAN_MOTION_DOT":"-0.00006975","NORAD_CAT_ID":"46166","ECCENTRICITY":"0.00014490","ARG_OF_PERICENTER":"61.8104","TLE_LINE1":"1 46166U 20057BB  22344.09585046 -.00006975  00000-0 -45016-3 0  9997","PERIOD":"95.594"},{"INCLINATION":"53.0550","DECAY_DATE":null,"GP_ID":"219929238","CLASSIFICATION_TYPE":"U","BSTAR":"-0.00021730000000","RA_OF_ASC_NODE":"238.8780","MEAN_MOTION":"15.06378712","REF_FRAME":"TEME","LAUNCH_DATE":"2020-08-18","SEMIMAJOR_AXIS":"6925.414","TIME_SYSTEM":"UTC","FILE":"3688140","MEAN_MOTION_DOT":"-0.00003515","NORAD_CAT_ID":"46167","MEAN_ELEMENT_THEORY":"SGP4","REV_AT_EPOCH":"12737","PERIAPSIS":"546.169","MEAN_ANOMALY":"286.8768","TLE_LINE1":"1 46167U 20057BC  22344.11061518 -.00003515  00000-0 -21730-3 0  9998","PERIOD":"95.593","ARG_OF_PERICENTER":"73.2397","ECCENTRICITY":"0.00016030","OBJECT_ID":"2020-057BC","SITE":"AFETR","OBJECT_NAME":"STARLINK-1626","TLE_LINE2":"2 46167  53.0550 238.8780 0001603  73.2397 286.8768 15.06378712127376","MEAN_MOTION_DDOT":"0.0000000000000","APOAPSIS":"548.389","ELEMENT_SET_NO":"999","EPOCH":"2022-12-10T02:39:17.151552","COUNTRY_CODE":"US","OBJECT_TYPE":"PAYLOAD","RCS_SIZE":"LARGE","CENTER_NAME":"EARTH","EPHEMERIS_TYPE":"0"},{"OBJECT_TYPE":"PAYLOAD","RCS_SIZE":"LARGE","CENTER_NAME":"EARTH","EPHEMERIS_TYPE":"0","SITE":"AFETR","OBJECT_NAME":"STARLINK-1627","OBJECT_ID":"2020-057BD","TLE_LINE2":"2 46168  53.0551 185.7998 0001693  60.8563 299.2596 15.06396154128171","APOAPSIS":"548.398","MEAN_MOTION_DDOT":"0.0000000000000","ELEMENT_SET_NO":"999","EPOCH":"2022-12-10T19:39:42.402528","COUNTRY_CODE":"US","MEAN_ELEMENT_THEORY":"SGP4","MEAN_MOTION_DOT":"0.00000362","FILE":"3688965","NORAD_CAT_ID":"46168","REV_AT_EPOCH":"12817","MEAN_ANOMALY":"299.2596","PERIAPSIS":"546.053","TLE_LINE1":"1 46168U 20057BD  22344.81924077  .00000362  00000-0  43193-4 0  9997","PERIOD":"95.592","ARG_OF_PERICENTER":"60.8563","ECCENTRICITY":"0.00016930","DECAY_DATE":null,"INCLINATION":"53.0551","BSTAR":"0.00004319300000","CLASSIFICATION_TYPE":"U","GP_ID":"219973574","REF_FRAME":"TEME","MEAN_MOTION":"15.06396154","RA_OF_ASC_NODE":"185.7998","SEMIMAJOR_AXIS":"6925.360","LAUNCH_DATE":"2020-08-18","TIME_SYSTEM":"UTC"},{"EPHEMERIS_TYPE":"0","CENTER_NAME":"EARTH","RCS_SIZE":"LARGE","OBJECT_TYPE":"PAYLOAD","EPOCH":"2022-12-10T03:44:35.021760","COUNTRY_CODE":"US","APOAPSIS":"551.096","MEAN_MOTION_DDOT":"0.0000000000000","ELEMENT_SET_NO":"999","TLE_LINE2":"2 46169  53.0060 238.6845 0001976  36.0937 324.0184 15.05580332127328","SITE":"AFETR","OBJECT_NAME":"STARLINK-1628","OBJECT_ID":"2020-057BE","ECCENTRICITY":"0.00019760","PERIOD":"95.644","TLE_LINE1":"1 46169U 20057BE  22344.15596090 -.00005788  00000-0 -37838-3 0  9992","ARG_OF_PERICENTER":"36.0937","REV_AT_EPOCH":"12732","MEAN_ANOMALY":"324.0184","PERIAPSIS":"548.358","MEAN_ELEMENT_THEORY":"SGP4","FILE":"3688140","NORAD_CAT_ID":"46169","MEAN_MOTION_DOT":"-0.00005788","SEMIMAJOR_AXIS":"6927.862","LAUNCH_DATE":"2020-08-18","TIME_SYSTEM":"UTC","REF_FRAME":"TEME","MEAN_MOTION":"15.05580332","RA_OF_ASC_NODE":"238.6845","DECAY_DATE":null,"INCLINATION":"53.0060","CLASSIFICATION_TYPE":"U","BSTAR":"-0.00037838000000","GP_ID":"219930240"},{"MEAN_ANOMALY":"304.6193","PERIAPSIS":"545.969","REV_AT_EPOCH":"12901","MEAN_ELEMENT_THEORY":"SGP4","FILE":"3688965","MEAN_MOTION_DOT":"-0.00002756","NORAD_CAT_ID":"46171","ECCENTRICITY":"0.00018160","ARG_OF_PERICENTER":"55.4967","TLE_LINE1":"1 46171U 20057BG  22344.81645682 -.00002756  00000-0 -16618-3 0  9995","PERIOD":"95.592","CLASSIFICATION_TYPE":"U","BSTAR":"-0.00016618000000","GP_ID":"219974075","DECAY_DATE":null,"INCLINATION":"53.0549","TIME_SYSTEM":"UTC","SEMIMAJOR_AXIS":"6925.362","LAUNCH_DATE":"2020-08-18","REF_FRAME":"TEME","RA_OF_ASC_NODE":"215.7209","MEAN_MOTION":"15.06395753","RCS_SIZE":"LARGE","OBJECT_TYPE":"PAYLOAD","EPHEMERIS_TYPE":"0","CENTER_NAME":"EARTH","TLE_LINE2":"2 46171  53.0549 215.7209 0001816  55.4967 304.6193 15.06395753129018","OBJECT_NAME":"STARLINK-1633","SITE":"AFETR","OBJECT_ID":"2020-057BG","COUNTRY_CODE":"US","EPOCH":"2022-12-10T19:35:41.869248","ELEMENT_SET_NO":"999","APOAPSIS":"548.484","MEAN_MOTION_DDOT":"0.0000000000000"},{"ELEMENT_SET_NO":"999","MEAN_MOTION_DDOT":"0.0000000000000","APOAPSIS":"547.645","COUNTRY_CODE":"US","EPOCH":"2022-12-10T19:56:54.124800","OBJECT_ID":"2020-057BH","SITE":"AFETR","OBJECT_NAME":"STARLINK-1635","TLE_LINE2":"2 46172  53.0554 215.6509 0000751  31.7690 328.3344 15.06428860129011","CENTER_NAME":"EARTH","EPHEMERIS_TYPE":"0","OBJECT_TYPE":"PAYLOAD","RCS_SIZE":"LARGE","RA_OF_ASC_NODE":"215.6509","MEAN_MOTION":"15.06428860","REF_FRAME":"TEME","TIME_SYSTEM":"UTC","LAUNCH_DATE":"2020-08-18","SEMIMAJOR_AXIS":"6925.260","GP_ID":"219974325","CLASSIFICATION_TYPE":"U","BSTAR":"-0.00053481000000","INCLINATION":"53.0554","DECAY_DATE":null,"ARG_OF_PERICENTER":"31.7690","TLE_LINE1":"1 46172U 20057BH  22344.83118200 -.00008244  00000-0 -53481-3 0  9996","PERIOD":"95.590","ECCENTRICITY":"0.00007510","FILE":"3688965","NORAD_CAT_ID":"46172","MEAN_MOTION_DOT":"-0.00008244","MEAN_ELEMENT_THEORY":"SGP4","PERIAPSIS":"546.605","MEAN_ANOMALY":"328.3344","REV_AT_EPOCH":"12901"}];
